[
    {
        "OBJECT_NAME": "COSMOS 2084",
        "OBJECT_ID": "1990-055A",
        "EPOCH": "2026-05-09T10:01:52.596768",
        "MEAN_MOTION": 15.05957287,
        "ECCENTRICITY": 0.0007867,
        "INCLINATION": 62.7873,
        "RA_OF_ASC_NODE": 128.3976,
        "ARG_OF_PERICENTER": 221.0877,
        "MEAN_ANOMALY": 138.9632,
        "EPHEMERIS_TYPE": 0,
        "CLASSIFICATION_TYPE": "U",
        "NORAD_CAT_ID": 20663,
        "ELEMENT_SET_NO": 999,
        "REV_AT_EPOCH": 94546,
        "BSTAR": 0.00010823,
        "MEAN_MOTION_DOT": 1.382e-05,
        "MEAN_MOTION_DDOT": 0
    },
    {
        "OBJECT_NAME": "SL-6 R/B(2)",
        "OBJECT_ID": "1990-055D",
        "EPOCH": "2026-05-09T19:36:57.032064",
        "MEAN_MOTION": 15.03866609,
        "ECCENTRICITY": 0.003457,
        "INCLINATION": 62.784,
        "RA_OF_ASC_NODE": 45.9295,
        "ARG_OF_PERICENTER": 359.3847,
        "MEAN_ANOMALY": 0.7204,
        "EPHEMERIS_TYPE": 0,
        "CLASSIFICATION_TYPE": "U",
        "NORAD_CAT_ID": 20666,
        "ELEMENT_SET_NO": 999,
        "REV_AT_EPOCH": 94738,
        "BSTAR": 0.00011216,
        "MEAN_MOTION_DOT": 1.365e-05,
        "MEAN_MOTION_DDOT": 0
    },
    {
        "OBJECT_NAME": "SL-8 R/B",
        "OBJECT_ID": "1990-078B",
        "EPOCH": "2026-05-09T16:32:52.398240",
        "MEAN_MOTION": 14.91032794,
        "ECCENTRICITY": 0.0355137,
        "INCLINATION": 82.9037,
        "RA_OF_ASC_NODE": 196.3857,
        "ARG_OF_PERICENTER": 167.9834,
        "MEAN_ANOMALY": 193.0153,
        "EPHEMERIS_TYPE": 0,
        "CLASSIFICATION_TYPE": "U",
        "NORAD_CAT_ID": 20775,
        "ELEMENT_SET_NO": 999,
        "REV_AT_EPOCH": 81838,
        "BSTAR": 0.0005035,
        "MEAN_MOTION_DOT": 0.00017525,
        "MEAN_MOTION_DDOT": 0
    },
    {
        "OBJECT_NAME": "SL-8 R/B",
        "OBJECT_ID": "1991-006B",
        "EPOCH": "2026-05-09T17:37:15.470112",
        "MEAN_MOTION": 13.77505812,
        "ECCENTRICITY": 0.0021414,
        "INCLINATION": 82.9394,
        "RA_OF_ASC_NODE": 124.6421,
        "ARG_OF_PERICENTER": 221.5275,
        "MEAN_ANOMALY": 312.2856,
        "EPHEMERIS_TYPE": 0,
        "CLASSIFICATION_TYPE": "U",
        "NORAD_CAT_ID": 21088,
        "ELEMENT_SET_NO": 999,
        "REV_AT_EPOCH": 77247,
        "BSTAR": -3.8705e-05,
        "MEAN_MOTION_DOT": -2.3e-07,
        "MEAN_MOTION_DDOT": 0
    },
    {
        "OBJECT_NAME": "OKEAN-3",
        "OBJECT_ID": "1991-039A",
        "EPOCH": "2026-05-09T20:21:02.461824",
        "MEAN_MOTION": 15.05142274,
        "ECCENTRICITY": 0.0015669,
        "INCLINATION": 82.5153,
        "RA_OF_ASC_NODE": 277.556,
        "ARG_OF_PERICENTER": 120.8486,
        "MEAN_ANOMALY": 239.4285,
        "EPHEMERIS_TYPE": 0,
        "CLASSIFICATION_TYPE": "U",
        "NORAD_CAT_ID": 21397,
        "ELEMENT_SET_NO": 999,
        "REV_AT_EPOCH": 87423,
        "BSTAR": 0.00011878,
        "MEAN_MOTION_DOT": 1.724e-05,
        "MEAN_MOTION_DDOT": 0
    },
    {
        "OBJECT_NAME": "COSMOS 2151",
        "OBJECT_ID": "1991-042A",
        "EPOCH": "2026-05-09T18:41:26.915136",
        "MEAN_MOTION": 15.00336596,
        "ECCENTRICITY": 0.0011391,
        "INCLINATION": 82.4987,
        "RA_OF_ASC_NODE": 24.7428,
        "ARG_OF_PERICENTER": 206.5254,
        "MEAN_ANOMALY": 153.5388,
        "EPHEMERIS_TYPE": 0,
        "CLASSIFICATION_TYPE": "U",
        "NORAD_CAT_ID": 21422,
        "ELEMENT_SET_NO": 999,
        "REV_AT_EPOCH": 87235,
        "BSTAR": 9.2744e-05,
        "MEAN_MOTION_DOT": 1.191e-05,
        "MEAN_MOTION_DDOT": 0
    },
    {
        "OBJECT_NAME": "SL-14 R/B",
        "OBJECT_ID": "1991-042B",
        "EPOCH": "2026-05-09T19:11:52.243008",
        "MEAN_MOTION": 14.81878299,
        "ECCENTRICITY": 0.0018072,
        "INCLINATION": 82.4926,
        "RA_OF_ASC_NODE": 162.8949,
        "ARG_OF_PERICENTER": 44.4036,
        "MEAN_ANOMALY": 315.8624,
        "EPHEMERIS_TYPE": 0,
        "CLASSIFICATION_TYPE": "U",
        "NORAD_CAT_ID": 21423,
        "ELEMENT_SET_NO": 999,
        "REV_AT_EPOCH": 86212,
        "BSTAR": 2.4622e-05,
        "MEAN_MOTION_DOT": 2.19e-06,
        "MEAN_MOTION_DDOT": 0
    },
    {
        "OBJECT_NAME": "ERS-1",
        "OBJECT_ID": "1991-050A",
        "EPOCH": "2026-05-09T19:06:49.987296",
        "MEAN_MOTION": 14.39492891,
        "ECCENTRICITY": 0.0032333,
        "INCLINATION": 98.7821,
        "RA_OF_ASC_NODE": 149.5532,
        "ARG_OF_PERICENTER": 23.1393,
        "MEAN_ANOMALY": 337.1242,
        "EPHEMERIS_TYPE": 0,
        "CLASSIFICATION_TYPE": "U",
        "NORAD_CAT_ID": 21574,
        "ELEMENT_SET_NO": 999,
        "REV_AT_EPOCH": 82452,
        "BSTAR": 7.861e-05,
        "MEAN_MOTION_DOT": 2e-06,
        "MEAN_MOTION_DDOT": 0
    },
    {
        "OBJECT_NAME": "ARIANE 40 R/B",
        "OBJECT_ID": "1991-050F",
        "EPOCH": "2026-05-09T20:10:52.864032",
        "MEAN_MOTION": 14.42933928,
        "ECCENTRICITY": 0.0001979,
        "INCLINATION": 98.1904,
        "RA_OF_ASC_NODE": 179.7459,
        "ARG_OF_PERICENTER": 230.9153,
        "MEAN_ANOMALY": 129.1862,
        "EPHEMERIS_TYPE": 0,
        "CLASSIFICATION_TYPE": "U",
        "NORAD_CAT_ID": 21610,
        "ELEMENT_SET_NO": 999,
        "REV_AT_EPOCH": 82781,
        "BSTAR": 6.5987e-05,
        "MEAN_MOTION_DOT": 1.79e-06,
        "MEAN_MOTION_DDOT": 0
    },
    {
        "OBJECT_NAME": "INTERCOSMOS 25",
        "OBJECT_ID": "1991-086A",
        "EPOCH": "2026-05-09T19:37:06.752928",
        "MEAN_MOTION": 12.12149468,
        "ECCENTRICITY": 0.1485436,
        "INCLINATION": 82.6013,
        "RA_OF_ASC_NODE": 273.03,
        "ARG_OF_PERICENTER": 345.1733,
        "MEAN_ANOMALY": 10.9862,
        "EPHEMERIS_TYPE": 0,
        "CLASSIFICATION_TYPE": "U",
        "NORAD_CAT_ID": 21819,
        "ELEMENT_SET_NO": 999,
        "REV_AT_EPOCH": 50409,
        "BSTAR": 2.7128e-05,
        "MEAN_MOTION_DOT": 1.5e-06,
        "MEAN_MOTION_DDOT": 0
    },
    {
        "OBJECT_NAME": "SL-8 R/B",
        "OBJECT_ID": "1992-008B",
        "EPOCH": "2026-05-09T19:35:09.703392",
        "MEAN_MOTION": 13.75972309,
        "ECCENTRICITY": 0.0033689,
        "INCLINATION": 82.9287,
        "RA_OF_ASC_NODE": 222.313,
        "ARG_OF_PERICENTER": 325.7792,
        "MEAN_ANOMALY": 154.7625,
        "EPHEMERIS_TYPE": 0,
        "CLASSIFICATION_TYPE": "U",
        "NORAD_CAT_ID": 21876,
        "ELEMENT_SET_NO": 999,
        "REV_AT_EPOCH": 71782,
        "BSTAR": 3.6705e-05,
        "MEAN_MOTION_DOT": 5.1e-07,
        "MEAN_MOTION_DDOT": 0
    },
    {
        "OBJECT_NAME": "SL-8 R/B",
        "OBJECT_ID": "1992-020B",
        "EPOCH": "2026-05-09T20:47:48.249888",
        "MEAN_MOTION": 13.75547322,
        "ECCENTRICITY": 0.0030172,
        "INCLINATION": 82.9275,
        "RA_OF_ASC_NODE": 108.3209,
        "ARG_OF_PERICENTER": 125.2754,
        "MEAN_ANOMALY": 298.9119,
        "EPHEMERIS_TYPE": 0,
        "CLASSIFICATION_TYPE": "U",
        "NORAD_CAT_ID": 21938,
        "ELEMENT_SET_NO": 999,
        "REV_AT_EPOCH": 70954,
        "BSTAR": -4.0403e-05,
        "MEAN_MOTION_DOT": -2.3e-07,
        "MEAN_MOTION_DDOT": 0
    },
    {
        "OBJECT_NAME": "USA 81",
        "OBJECT_ID": "1992-023A",
        "EPOCH": "2026-05-09T20:29:24.266112",
        "MEAN_MOTION": 14.32386992,
        "ECCENTRICITY": 0.0001864,
        "INCLINATION": 85.0049,
        "RA_OF_ASC_NODE": 96.1305,
        "ARG_OF_PERICENTER": 111.4976,
        "MEAN_ANOMALY": 248.6415,
        "EPHEMERIS_TYPE": 0,
        "CLASSIFICATION_TYPE": "U",
        "NORAD_CAT_ID": 21949,
        "ELEMENT_SET_NO": 999,
        "REV_AT_EPOCH": 10354,
        "BSTAR": 4.8888e-05,
        "MEAN_MOTION_DOT": 1.52e-06,
        "MEAN_MOTION_DDOT": 0
    }
]