COSMOS 2084             
1 20663U 90055A   26129.41796987  .00001382  00000+0  10823-3 0  9997
2 20663  62.7873 128.3976 0007867 221.0877 138.9632 15.05957287945462
SL-6 R/B(2)             
1 20666U 90055D   26129.81732676  .00001365  00000+0  11216-3 0  9997
2 20666  62.7840  45.9295 0034570 359.3847   0.7204 15.03866609947389
SL-8 R/B                
1 20775U 90078B   26129.68949535  .00017525  00000+0  50350-3 0  9999
2 20775  82.9037 196.3857 0355137 167.9834 193.0153 14.91032794818383
SL-8 R/B                
1 21088U 91006B   26129.73420683 -.00000023  00000+0 -38705-4 0  9991
2 21088  82.9394 124.6421 0021414 221.5275 312.2856 13.77505812772475
OKEAN-3                 
1 21397U 91039A   26129.84794516  .00001724  00000+0  11878-3 0  9999
2 21397  82.5153 277.5560 0015669 120.8486 239.4285 15.05142274874234
COSMOS 2151             
1 21422U 91042A   26129.77878374  .00001191  00000+0  92744-4 0  9999
2 21422  82.4987  24.7428 0011391 206.5254 153.5388 15.00336596872353
SL-14 R/B               
1 21423U 91042B   26129.79991022  .00000219  00000+0  24622-4 0  9998
2 21423  82.4926 162.8949 0018072  44.4036 315.8624 14.81878299862128
ERS-1                   
1 21574U 91050A   26129.79641189  .00000200  00000+0  78610-4 0  9996
2 21574  98.7821 149.5532 0032333  23.1393 337.1242 14.39492891824523
ARIANE 40 R/B           
1 21610U 91050F   26129.84088963  .00000179  00000+0  65987-4 0  9996
2 21610  98.1904 179.7459 0001979 230.9153 129.1862 14.42933928827814
INTERCOSMOS 25          
1 21819U 91086A   26129.81743927  .00000150  00000+0  27128-4 0  9995
2 21819  82.6013 273.0300 1485436 345.1733  10.9862 12.12149468504097
SL-8 R/B                
1 21876U 92008B   26129.81608453  .00000051  00000+0  36705-4 0  9998
2 21876  82.9287 222.3130 0033689 325.7792 154.7625 13.75972309717820
SL-8 R/B                
1 21938U 92020B   26129.86653067 -.00000023  00000+0 -40403-4 0  9998
2 21938  82.9275 108.3209 0030172 125.2754 298.9119 13.75547322709543
USA 81                  
1 21949U 92023A   26129.85375308  .00000152  00000+0  48888-4 0  9997
2 21949  85.0049  96.1305 0001864 111.4976 248.6415 14.32386992103545
